{"spkid": "20171839", "covariance": {"epoch": "2457522.5", "elements": [{"name": "e", "sigma": 4.27738666393483e-08, "units": null, "title": "eccentricity", "value": ".3109879825559098", "label": "e"}, {"units": "au", "title": "perihelion distance", "value": "1.006630294383812", "sigma": 6.3184492959907e-08, "name": "q", "label": "q"}, {"label": "tp", "value": "2457807.823712826088", "title": "time of perihelion passage", "units": "TDB", "name": "tp", "sigma": 1.95403233100165e-05}, {"name": "om", "sigma": 8.48093381991058e-06, "value": "226.6932121666183", "title": "longitude of the ascending node", "units": "deg", "label": "node"}, {"label": "peri", "units": "deg", "value": "321.8922420798523", "title": "argument of perihelion", "sigma": 1.05464726886698e-05, "name": "w"}, {"label": "i", "units": "deg", "title": "inclination", "value": "17.07213192092532", "name": "i", "sigma": 7.43118768154092e-06}], "data": [["1.829603667280751E-15", "-2.702026841485429E-15", "-7.906821128622408E-14", "1.847441379769798E-13", "-1.470055842988572E-13", "-1.718952442440501E-14"], ["-2.702026841485429E-15", "3.992280150600542E-15", "1.415066254688858E-13", "-2.710180317336095E-13", "2.247948695014487E-13", "2.379275008582589E-14"], ["-7.906821128622408E-14", "1.415066254688858E-13", "3.818242350599742E-10", "2.505849869524026E-11", "1.408111393699492E-10", "-2.218882528468761E-11"], ["1.847441379769798E-13", "-2.710180317336095E-13", "2.505849869524026E-11", "7.192623845770299E-11", "-4.746951406616121E-11", "1.681017515718703E-11"], ["-1.470055842988572E-13", "2.247948695014487E-13", "1.408111393699492E-10", "-4.746951406616121E-11", "1.112280861728589E-10", "-2.583726569689711E-11"], ["-1.718952442440501E-14", "2.379275008582589E-14", "-2.218882528468761E-11", "1.681017515718703E-11", "-2.583726569689711E-11", "5.522255035828552E-11"]], "labels": ["e", "q", "tp", "node", "peri", "i"]}, "elements": [{"label": "e", "name": "e", "sigma": "4.2845E-8", "units": null, "title": "eccentricity", "value": ".310674321807252"}, {"units": "au", "value": "1.460624621899769", "title": "semi-major axis", "name": "a", "sigma": "1.7706E-9", "label": "a"}, {"label": "q", "name": "q", "sigma": "6.3175E-8", "title": "perihelion distance", "value": "1.006846058076085", "units": "au"}, {"label": "i", "sigma": "7.4315E-6", "name": "i", "units": "deg", "value": "17.07664915695175", "title": "inclination; angle with respect to x-y ecliptic plane"}, {"units": "deg", "title": "longitude of the ascending node", "value": "226.6359168484881", "sigma": "8.4801E-6", "name": "om", "label": "node"}, {"label": "peri", "sigma": "1.056E-5", "name": "w", "value": "321.9715316142554", "title": "argument of perihelion", "units": "deg"}, {"label": "M", "units": "deg", "title": "mean anomaly", "value": "93.88697935716472", "sigma": "1.4518E-5", "name": "ma"}, {"name": "tp", "sigma": "2.5721E-5", "units": "TDB", "title": "time of perihelion passage", "value": "2461032.345219396166", "label": "tp"}, {"label": "period", "value": "644.7722722773974", "title": "sidereal orbital period", "units": "d", "name": "per", "sigma": "1.1724E-6"}, {"title": "mean motion", "value": ".5583366647086816", "units": "deg/d", "name": "n", "sigma": "1.0152E-9", "label": "n"}, {"label": "Q", "sigma": "2.3207E-9", "name": "ad", "units": "au", "value": "1.914403185723454", "title": "aphelion distance"}], "epoch": "2461200.5"}